{
    "links": {
        "self": "http://www.neowsapp.com/rest/v1/neo/3740047?api_key=iIulBulltgU6a56xZRHN4H3l9WmuAYTsLGpBGhQ2"
    },
    "id": "3740047",
    "neo_reference_id": "3740047",
    "name": "(2016 AM165)",
    "designation": "2016 AM165",
    "nasa_jpl_url": "http://ssd.jpl.nasa.gov/sbdb.cgi?sstr=3740047",
    "absolute_magnitude_h": 24.7,
    "estimated_diameter": {
        "kilometers": {
            "estimated_diameter_min": 0.0305179233,
            "estimated_diameter_max": 0.0682401509
        },
        "meters": {
            "estimated_diameter_min": 30.5179232594,
            "estimated_diameter_max": 68.2401509401
        },
        "miles": {
            "estimated_diameter_min": 0.0189629525,
            "estimated_diameter_max": 0.0424024508
        },
        "feet": {
            "estimated_diameter_min": 100.1244233463,
            "estimated_diameter_max": 223.8850168104
        }
    },
    "is_potentially_hazardous_asteroid": false,
    "close_approach_data": [
        {
            "close_approach_date": "1922-12-01",
            "close_approach_date_full": "1922-Dec-01 08:12",
            "epoch_date_close_approach": -1485877680000,
            "relative_velocity": {
                "kilometers_per_second": "5.5060073796",
                "kilometers_per_hour": "19821.6265666828",
                "miles_per_hour": "12316.3879075035"
            },
            "miss_distance": {
                "astronomical": "0.0863483351",
                "lunar": "33.5895023539",
                "kilometers": "12917527.009006237",
                "miles": "8026579.0859785906"
            },
            "orbiting_body": "Mars"
        },
        {
            "close_approach_date": "2016-01-20",
            "close_approach_date_full": "2016-Jan-20 13:30",
            "epoch_date_close_approach": 1453296600000,
            "relative_velocity": {
                "kilometers_per_second": "1.6461359207",
                "kilometers_per_hour": "5926.0893144323",
                "miles_per_hour": "3682.2414409593"
            },
            "miss_distance": {
                "astronomical": "0.1111906253",
                "lunar": "43.2531532417",
                "kilometers": "16633880.708848111",
                "miles": "10335814.1944054918"
            },
            "orbiting_body": "Earth"
        },
        {
            "close_approach_date": "2040-11-06",
            "close_approach_date_full": "2040-Nov-06 20:15",
            "epoch_date_close_approach": 2235845700000,
            "relative_velocity": {
                "kilometers_per_second": "8.1938490944",
                "kilometers_per_hour": "29497.8567400123",
                "miles_per_hour": "18328.8210393704"
            },
            "miss_distance": {
                "astronomical": "0.0778776099",
                "lunar": "30.2943902511",
                "kilometers": "11650324.561730913",
                "miles": "7239175.9976080794"
            },
            "orbiting_body": "Mars"
        },
        {
            "close_approach_date": "2090-04-29",
            "close_approach_date_full": "2090-Apr-29 22:52",
            "epoch_date_close_approach": 3797189520000,
            "relative_velocity": {
                "kilometers_per_second": "7.1151969156",
                "kilometers_per_hour": "25614.7088961737",
                "miles_per_hour": "15915.9839805142"
            },
            "miss_distance": {
                "astronomical": "0.0155312295",
                "lunar": "6.0416482755",
                "kilometers": "2323438.851681165",
                "miles": "1443717.956343477"
            },
            "orbiting_body": "Mars"
        }
    ],
    "orbital_data": {
        "orbit_id": "6",
        "orbit_determination_date": "2017-04-06 08:29:09",
        "first_observation_date": "2016-01-13",
        "last_observation_date": "2016-02-10",
        "data_arc_in_days": 28,
        "observations_used": 28,
        "orbit_uncertainty": "7",
        "minimum_orbit_intersection": ".10088",
        "jupiter_tisserand_invariant": "4.772",
        "epoch_osculation": "2459000.5",
        "eccentricity": ".2180305511311219",
        "semi_major_axis": "1.381529535426059",
        "inclination": "1.971253149285211",
        "ascending_node_longitude": "61.47216337600979",
        "orbital_period": "593.1147000421025",
        "perihelion_distance": "1.080313889413193",
        "perihelion_argument": "53.97531766794238",
        "aphelion_distance": "1.682745181438926",
        "perihelion_time": "2459180.647472276739",
        "mean_anomaly": "250.6567481550832",
        "mean_motion": ".6069652294479385",
        "equinox": "J2000",
        "orbit_class": {
            "orbit_class_type": "AMO",
            "orbit_class_description": "Near-Earth asteroid orbits similar to that of 1221 Amor",
            "orbit_class_range": "1.017 AU < q (perihelion) < 1.3 AU"
        }
    },
    "is_sentry_object": false
}